STARLINK-5557           
1 55770U 23028AF  23083.70846065  .00021449  00000+0  17991-3 0  9990
2 55770  70.0007  96.2937 0003467 273.2050  49.7589 15.69893936  3953
STARLINK-5591           
1 55771U 23028AG  23083.70846065  .00020238  00000+0  16988-3 0  9991
2 55771  70.0003  96.2916 0003151 272.5794  52.1675 15.69895450  3951
STARLINK-5835           
1 55772U 23028AH  23083.70846065  .00017949  00000+0  15092-3 0  9992
2 55772  70.0003  96.2889 0003601 272.6763  54.4612 15.69891765  3959
STARLINK-5833           
1 55773U 23028AJ  23083.70846065  .00030003  00000+0  25069-3 0  9994
2 55773  70.0005  96.2921 0003711 269.7095  54.4371 15.69894530  3951
STARLINK-5812           
1 55774U 23028AK  23083.70846065  .00031941  00000+0  26681-3 0  9998
2 55774  70.0004  96.2905 0003329 263.2104  62.1390 15.69886650  3959
STARLINK-5809           
1 55775U 23028AL  23083.70846065  .00020684  00000+0  17361-3 0  9996
2 55775  70.0005  96.2894 0003478 269.1256  57.4148 15.69889255  3958
STARLINK-5810           
1 55776U 23028AM  23083.70846065  .00033016  00000+0  27577-3 0  9990
2 55776  70.0006  96.2853 0003298 273.0348  57.0881 15.69880041  3955
STARLINK-5814           
1 55777U 23028AN  23083.70846065  .00043180  00000+0  35961-3 0  9990
2 55777  70.0007  96.2881 0003430 271.0682  56.6590 15.69884914  3950
STARLINK-5816           
1 55778U 23028AP  23083.70846065  .00035280  00000+0  29445-3 0  9993
2 55778  70.0007  96.2872 0003644 266.7373  61.5860 15.69881131  3959
STARLINK-5817           
1 55779U 23028AQ  23083.70846065 -.00027701  00000+0 -22930-3 0  9997
2 55779  69.9960  96.1052 0003917 268.4807 215.0144 15.69927742  3969
STARLINK-5819           
1 55780U 23028AR  23083.70846065  .00033024  00000+0  27574-3 0  9991
2 55780  70.0004  96.2864 0003458 269.8834  59.0366 15.69887647  3950
STARLINK-5820           
1 55781U 23028AS  23083.70846065  .00022411  00000+0  18790-3 0  9990
2 55781  70.0005  96.2858 0003540 275.4282  54.0899 15.69891321  3957
STARLINK-5826           
1 55782U 23028AT  23083.70846065  .00033605  00000+0  28052-3 0  9990
2 55782  70.0007  96.2843 0003650 269.1462  61.5582 15.69888932  3952
STARLINK-5825           
1 55783U 23028AU  23083.70846065  .00025614  00000+0  21442-3 0  9998
2 55783  70.0005  96.2838 0003564 276.2320  55.0714 15.69890869  3958
STARLINK-5797           
1 55784U 23028AV  23083.70846065  .00026848  00000+0  22468-3 0  9998
2 55784  70.0007  96.2808 0003493 275.5236  58.1660 15.69886254  3954
STARLINK-5818           
1 55785U 23028AW  23083.70846065  .00023880  00000+0  20009-3 0  9991
2 55785  70.0004  96.2827 0003450 267.1064  64.7976 15.69888446  3950
STARLINK-5823           
1 55786U 23028AX  23083.70846065  .00047095  00000+0  39189-3 0  9995
2 55786  70.0004  96.2798 0003381 265.6225  68.6520 15.69883875  3952
STARLINK-5811           
1 55787U 23028AY  23083.70846065  .00031741  00000+0  26516-3 0  9997
2 55787  70.0007  96.2824 0003490 268.2721  64.2256 15.69885314  3955
STARLINK-5804           
1 55788U 23028AZ  23083.70846065 -.00026008  00000+0 -21573-3 0  9998
2 55788  70.0007  96.2796 0003567 269.0879  64.1484 15.69862643  3954
STARLINK-5815           
1 55789U 23028BA  23083.70846065  .00046404  00000+0  38619-3 0  9998
2 55789  70.0004  96.2778 0003443 270.7204  65.3426 15.69883794  3955
STARLINK-5813           
1 55790U 23028BB  23083.70846065  .00027795  00000+0  23254-3 0  9991
2 55790  70.0007  96.2786 0003415 268.1245  67.3534 15.69884547  3953
STARLINK-5807           
1 55791U 23028BC  23083.70846065  .00029592  00000+0  24739-3 0  9998
2 55791  70.0003  96.2794 0003634 268.4870  66.3936 15.69884922  3951
ONEWEB-0530             
1 55796U 23029A   23083.66667824  .00218819  00000+0  61226-2 0  9996
2 55796  53.0212 340.1636 0005958 179.8544 324.3473 15.35290931  2922
ONEWEB-0534             
1 55797U 23029B   23083.66667824  .00218819  00000+0  61226-2 0  9997
2 55797  53.0212 340.1636 0005958 179.8544 324.3473 15.35290931  2901
ONEWEB-0556             
1 55798U 23029C   23083.70846065  .00067163  00000+0  66537-2 0  9993
2 55798  86.5126 192.7459 0011077 156.6177  45.5005 14.91453806  2912
ONEWEB-0562             
1 55799U 23029D   23083.70846065  .00068306  00000+0  68075-2 0  9993
2 55799  86.5091 192.7415 0010101 159.6116  29.5255 14.91215580  2902
ONEWEB-0563             
1 55800U 23029E   23083.70846065  .00067445  00000+0  67082-2 0  9996
2 55800  86.5137 192.7503 0010308 158.9194  34.8300 14.91299304  2907
ONEWEB-0564             
1 55801U 23029F   23083.66667824  .00218819  00000+0  61226-2 0  9993
2 55801  53.0212 340.1636 0005958 179.8544 324.3473 15.35290931  2929
ONEWEB-0638             
1 55802U 23029G   23083.66667824  .00218819  00000+0  61226-2 0  9994
2 55802  53.0212 340.1636 0005958 179.8544 324.3473 15.35290931  2920
ONEWEB-0639             
1 55803U 23029H   23083.70846065 -.00607230  00000+0 -72261-1 0  9997
2 55803  86.5467 192.7549 0009646 162.1918 359.3882 14.86999611  2913
ONEWEB-0640             
1 55804U 23029J   23083.66667824  .00218819  00000+0  61226-2 0  9996
2 55804  53.0212 340.1636 0005958 179.8544 324.3473 15.35290931  2900
ONEWEB-0641             
1 55805U 23029K   23083.70846065 -.00595290  00000+0 -67146-1 0  9997
2 55805  86.5357 192.7418 0012612 157.8212  50.5315 14.89080431  2918
ONEWEB-0642             
1 55806U 23029L   23083.70846065 -.00616330  00000+0 -72281-1 0  9993
2 55806  86.5463 192.7593 0010188 158.2184  13.1872 14.87623923  2910
ONEWEB-0643             
1 55807U 23029M   23083.66667824  .00218819  00000+0  61226-2 0  9999
2 55807  53.0212 340.1636 0005958 179.8544 324.3473 15.35290931  2925
ONEWEB-0644             
1 55808U 23029N   23083.70846065 -.00561890  00000+0 -66440-1 0  9995
2 55808  86.5491 192.7605 0009874 160.1343   3.1586 14.87066924  2919
ONEWEB-0645             
1 55809U 23029P   23083.70846065 -.00524956  00000+0 -58878-1 0  9994
2 55809  86.5346 192.7470 0012736 157.6597  54.0359 14.89398205  2917
ONEWEB-0646             
1 55810U 23029Q   23083.75001157 -.00625956  00000+0 -74413-1 0  9991
2 55810  86.5496 192.7420 0009883 159.6612 228.6767 14.87117082  2911
ONEWEB-0648             
1 55811U 23029R   23083.66667824  .00218819  00000+0  61226-2 0  9994
2 55811  53.0212 340.1636 0005958 179.8544 324.3473 15.35290931  2920
ONEWEB-0649             
1 55812U 23029S   23083.70846065 -.00359806  00000+0 -41130-1 0  9991
2 55812  86.5370 192.7457 0010618 156.8507  26.6590 14.88164249  2912
ONEWEB-0650             
1 55813U 23029T   23083.70846065 -.00571107  00000+0 -64988-1 0  9998
2 55813  86.5397 192.7471 0012389 157.0618  45.7724 14.88629027  2912
ONEWEB-0652             
1 55814U 23029U   23083.66667824  .00218819  00000+0  61226-2 0  9997
2 55814  53.0212 340.1636 0005958 179.8544 324.3473 15.35290931  2901
ONEWEB-0653             
1 55815U 23029V   23083.66667824  .00218819  00000+0  61226-2 0  9998
2 55815  53.0212 340.1636 0005958 179.8544 324.3473 15.35290931  2902
ONEWEB-0654             
1 55816U 23029W   23083.66667824  .00218819  00000+0  61226-2 0  9999
2 55816  53.0212 340.1636 0005958 179.8544 324.3473 15.35290931  2903
ONEWEB-0656             
1 55817U 23029X   23083.66667824  .00218819  00000+0  61226-2 0  9990
2 55817  53.0212 340.1636 0005958 179.8544 324.3473 15.35290931  2904
ONEWEB-0657             
1 55818U 23029Y   23083.70846065 -.00557048  00000+0 -61531-1 0  9992
2 55818  86.5310 192.7388 0013032 158.1618  58.5128 14.89759200  2904
ONEWEB-0658             
1 55819U 23029Z   23083.70846065 -.00578235  00000+0 -64405-1 0  9997
2 55819  86.5322 192.7396 0012912 157.9471  56.1374 14.89513381  2902
ONEWEB-0660             
1 55820U 23029AA  23083.66667824  .00218819  00000+0  61226-2 0  9994
2 55820  53.0212 340.1636 0005958 179.8544 324.3473 15.35290931  2920
ONEWEB-0661             
1 55821U 23029AB  23083.66667824  .00218819  00000+0  61226-2 0  9995
2 55821  53.0212 340.1636 0005958 179.8544 324.3473 15.35290931  2909
ONEWEB-0662             
1 55822U 23029AC  23083.66667824  .00218819  00000+0  61226-2 0  9996
2 55822  53.0212 340.1636 0005958 179.8544 324.3473 15.35290931  2922
ONEWEB-0663             
1 55823U 23029AD  23083.66667824  .00218819  00000+0  61226-2 0  9997
2 55823  53.0212 340.1636 0005958 179.8544 324.3473 15.35290931  2901
ONEWEB-0664             
1 55824U 23029AE  23083.66667824  .00218819  00000+0  61226-2 0  9998
2 55824  53.0212 340.1636 0005958 179.8544 324.3473 15.35290931  2902
ONEWEB-0665             
1 55825U 23029AF  23083.66667824  .00218819  00000+0  61226-2 0  9999
2 55825  53.0212 340.1636 0005958 179.8544 324.3473 15.35290931  2903
ONEWEB-0666             
1 55826U 23029AG  23083.66667824  .00218819  00000+0  61226-2 0  9990
2 55826  53.0212 340.1636 0005958 179.8544 324.3473 15.35290931  2904
ONEWEB-0667             
1 55827U 23029AH  23083.66667824  .00218819  00000+0  61226-2 0  9991
2 55827  53.0212 340.1636 0005958 179.8544 324.3473 15.35290931  2905
ONEWEB-0669             
1 55828U 23029AJ  23083.66667824  .00218819  00000+0  61226-2 0  9992
2 55828  53.0212 340.1636 0005958 179.8544 324.3473 15.35290931  2906
ONEWEB-0670             
1 55829U 23029AK  23083.66667824  .00218819  00000+0  61226-2 0  9993
2 55829  53.0212 340.1636 0005958 179.8544 324.3473 15.35290931  2907
ONEWEB-0671             
1 55830U 23029AL  23083.70846065 -.00543164  00000+0 -61226-1 0  9991
2 55830  86.5368 192.7435 0012779 157.6233  47.9439 14.88890635  2913
ONEWEB-0672             
1 55831U 23029AM  23083.66667824  .00218819  00000+0  61226-2 0  9996
2 55831  53.0212 340.1636 0005958 179.8544 324.3473 15.35290931  2900
ONEWEB-0673             
1 55832U 23029AN  23083.70846065 -.00566588  00000+0 -65397-1 0  9991
2 55832  86.5396 192.7472 0010924 157.0432  27.0324 14.88053837  2931
